CCSDS_OMM_VERS = 2.0
CREATION_DATE  = 
ORIGINATOR     = 

OBJECT_NAME    = SL-3 R/B
OBJECT_ID      = 1988-032B
CENTER_NAME    = EARTH
REF_FRAME      = TEME
TIME_SYSTEM    = UTC
MEAN_ELEMENT_THEORY = SGP/SGP4

EPOCH          = 2026-04-05T12:35:56.926752
MEAN_MOTION    = 15.20227144
ECCENTRICITY   = .0027114
INCLINATION    = 97.5226
RA_OF_ASC_NODE = 78.6930
ARG_OF_PERICENTER = 137.4907
MEAN_ANOMALY   = 222.8434

EPHEMERIS_TYPE = 0
CLASSIFICATION_TYPE = U
NORAD_CAT_ID   = 19046
ELEMENT_SET_NO = 999
REV_AT_EPOCH   = 5618
BSTAR          = .28345E-3
MEAN_MOTION_DOT = .6135E-4
MEAN_MOTION_DDOT = 0

CCSDS_OMM_VERS = 2.0
CREATION_DATE  = 
ORIGINATOR     = 

OBJECT_NAME    = SL-16 R/B
OBJECT_ID      = 1988-039B
CENTER_NAME    = EARTH
REF_FRAME      = TEME
TIME_SYSTEM    = UTC
MEAN_ELEMENT_THEORY = SGP/SGP4

EPOCH          = 2026-04-05T04:37:01.452288
MEAN_MOTION    = 14.19620769
ECCENTRICITY   = .0023872
INCLINATION    = 71.0174
RA_OF_ASC_NODE = 12.5077
ARG_OF_PERICENTER = 296.5078
MEAN_ANOMALY   = 63.3599

EPHEMERIS_TYPE = 0
CLASSIFICATION_TYPE = U
NORAD_CAT_ID   = 19120
ELEMENT_SET_NO = 999
REV_AT_EPOCH   = 96214
BSTAR          = -.7016531E-5
MEAN_MOTION_DOT = -.63E-6
MEAN_MOTION_DDOT = 0

CCSDS_OMM_VERS = 2.0
CREATION_DATE  = 
ORIGINATOR     = 

OBJECT_NAME    = COSMOS 1953
OBJECT_ID      = 1988-050A
CENTER_NAME    = EARTH
REF_FRAME      = TEME
TIME_SYSTEM    = UTC
MEAN_ELEMENT_THEORY = SGP/SGP4

EPOCH          = 2026-04-05T12:40:03.932256
MEAN_MOTION    = 15.28969380
ECCENTRICITY   = .0011772
INCLINATION    = 82.5055
RA_OF_ASC_NODE = 131.2444
ARG_OF_PERICENTER = 38.7092
MEAN_ANOMALY   = 321.4989

EPHEMERIS_TYPE = 0
CLASSIFICATION_TYPE = U
NORAD_CAT_ID   = 19210
ELEMENT_SET_NO = 999
REV_AT_EPOCH   = 4188
BSTAR          = .30014E-3
MEAN_MOTION_DOT = .8492E-4
MEAN_MOTION_DDOT = 0

CCSDS_OMM_VERS = 2.0
CREATION_DATE  = 
ORIGINATOR     = 

OBJECT_NAME    = SL-8 R/B
OBJECT_ID      = 1988-053B
CENTER_NAME    = EARTH
REF_FRAME      = TEME
TIME_SYSTEM    = UTC
MEAN_ELEMENT_THEORY = SGP/SGP4

EPOCH          = 2026-04-05T08:43:20.504928
MEAN_MOTION    = 14.38934368
ECCENTRICITY   = .0021346
INCLINATION    = 74.0469
RA_OF_ASC_NODE = 63.2939
ARG_OF_PERICENTER = 238.9453
MEAN_ANOMALY   = 231.7294

EPHEMERIS_TYPE = 0
CLASSIFICATION_TYPE = U
NORAD_CAT_ID   = 19257
ELEMENT_SET_NO = 999
REV_AT_EPOCH   = 98043
BSTAR          = .10511E-3
MEAN_MOTION_DOT = .298E-5
MEAN_MOTION_DDOT = 0

CCSDS_OMM_VERS = 2.0
CREATION_DATE  = 
ORIGINATOR     = 

OBJECT_NAME    = COSMOS 1975
OBJECT_ID      = 1988-093A
CENTER_NAME    = EARTH
REF_FRAME      = TEME
TIME_SYSTEM    = UTC
MEAN_ELEMENT_THEORY = SGP/SGP4

EPOCH          = 2026-04-05T10:32:20.568480
MEAN_MOTION    = 15.28465707
ECCENTRICITY   = .0013315
INCLINATION    = 82.5164
RA_OF_ASC_NODE = 90.8179
ARG_OF_PERICENTER = 79.5828
MEAN_ANOMALY   = 280.6911

EPHEMERIS_TYPE = 0
CLASSIFICATION_TYPE = U
NORAD_CAT_ID   = 19573
ELEMENT_SET_NO = 999
REV_AT_EPOCH   = 2349
BSTAR          = .27465E-3
MEAN_MOTION_DOT = .766E-4
MEAN_MOTION_DDOT = 0

CCSDS_OMM_VERS = 2.0
CREATION_DATE  = 
ORIGINATOR     = 

OBJECT_NAME    = SL-14 R/B
OBJECT_ID      = 1988-093B
CENTER_NAME    = EARTH
REF_FRAME      = TEME
TIME_SYSTEM    = UTC
MEAN_ELEMENT_THEORY = SGP/SGP4

EPOCH          = 2026-04-05T05:13:17.061312
MEAN_MOTION    = 14.85690225
ECCENTRICITY   = .00195254
INCLINATION    = 82.5346
RA_OF_ASC_NODE = 17.1467
ARG_OF_PERICENTER = 313.5979
MEAN_ANOMALY   = 208.6179

EPHEMERIS_TYPE = 0
CLASSIFICATION_TYPE = U
NORAD_CAT_ID   = 19574
ELEMENT_SET_NO = 999
REV_AT_EPOCH   = 495
BSTAR          = .8337933E-4
MEAN_MOTION_DOT = .749E-5
MEAN_MOTION_DDOT = 0

CCSDS_OMM_VERS = 2.0
CREATION_DATE  = 
ORIGINATOR     = 

OBJECT_NAME    = SL-16 R/B
OBJECT_ID      = 1988-102B
CENTER_NAME    = EARTH
REF_FRAME      = TEME
TIME_SYSTEM    = UTC
MEAN_ELEMENT_THEORY = SGP/SGP4

EPOCH          = 2026-04-05T09:25:53.209344
MEAN_MOTION    = 14.16155997
ECCENTRICITY   = .0015442
INCLINATION    = 70.9972
RA_OF_ASC_NODE = 95.3086
ARG_OF_PERICENTER = 322.6944
MEAN_ANOMALY   = 37.3105

EPHEMERIS_TYPE = 0
CLASSIFICATION_TYPE = U
NORAD_CAT_ID   = 19650
ELEMENT_SET_NO = 999
REV_AT_EPOCH   = 93067
BSTAR          = .17439E-3
MEAN_MOTION_DOT = .298E-5
MEAN_MOTION_DDOT = 0

CCSDS_OMM_VERS = 2.0
CREATION_DATE  = 
ORIGINATOR     = 

OBJECT_NAME    = INTERCOSMOS 24
OBJECT_ID      = 1989-080A
CENTER_NAME    = EARTH
REF_FRAME      = TEME
TIME_SYSTEM    = UTC
MEAN_ELEMENT_THEORY = SGP/SGP4

EPOCH          = 2026-04-05T11:48:34.773696
MEAN_MOTION    = 12.59591595
ECCENTRICITY   = .1187027
INCLINATION    = 82.6016
RA_OF_ASC_NODE = 86.9452
ARG_OF_PERICENTER = 230.5586
MEAN_ANOMALY   = 118.4500

EPHEMERIS_TYPE = 0
CLASSIFICATION_TYPE = U
NORAD_CAT_ID   = 20261
ELEMENT_SET_NO = 999
REV_AT_EPOCH   = 67017
BSTAR          = .14378E-3
MEAN_MOTION_DOT = .49E-5
MEAN_MOTION_DDOT = 0

CCSDS_OMM_VERS = 2.0
CREATION_DATE  = 
ORIGINATOR     = 

OBJECT_NAME    = SL-14 R/B
OBJECT_ID      = 1989-080C
CENTER_NAME    = EARTH
REF_FRAME      = TEME
TIME_SYSTEM    = UTC
MEAN_ELEMENT_THEORY = SGP/SGP4

EPOCH          = 2026-04-05T10:35:56.279904
MEAN_MOTION    = 12.50519491
ECCENTRICITY   = .123092
INCLINATION    = 82.5944
RA_OF_ASC_NODE = 156.0201
ARG_OF_PERICENTER = 123.6330
MEAN_ANOMALY   = 248.8397

EPHEMERIS_TYPE = 0
CLASSIFICATION_TYPE = U
NORAD_CAT_ID   = 20262
ELEMENT_SET_NO = 999
REV_AT_EPOCH   = 66349
BSTAR          = .12932E-3
MEAN_MOTION_DOT = .46E-5
MEAN_MOTION_DDOT = 0

CCSDS_OMM_VERS = 2.0
CREATION_DATE  = 
ORIGINATOR     = 

OBJECT_NAME    = DELTA 1 R/B
OBJECT_ID      = 1989-089B
CENTER_NAME    = EARTH
REF_FRAME      = TEME
TIME_SYSTEM    = UTC
MEAN_ELEMENT_THEORY = SGP/SGP4

EPOCH          = 2026-04-05T12:30:25.607808
MEAN_MOTION    = 14.50686963
ECCENTRICITY   = .0070057
INCLINATION    = 97.0683
RA_OF_ASC_NODE = 298.6877
ARG_OF_PERICENTER = 38.7775
MEAN_ANOMALY   = 321.8421

EPHEMERIS_TYPE = 0
CLASSIFICATION_TYPE = U
NORAD_CAT_ID   = 20323
ELEMENT_SET_NO = 999
REV_AT_EPOCH   = 89962
BSTAR          = .12478E-3
MEAN_MOTION_DOT = .471E-5
MEAN_MOTION_DDOT = 0

CCSDS_OMM_VERS = 2.0
CREATION_DATE  = 
ORIGINATOR     = 

OBJECT_NAME    = ARIANE 40 R/B
OBJECT_ID      = 1990-005H
CENTER_NAME    = EARTH
REF_FRAME      = TEME
TIME_SYSTEM    = UTC
MEAN_ELEMENT_THEORY = SGP/SGP4

EPOCH          = 2026-04-05T10:16:59.174688
MEAN_MOTION    = 14.39889707
ECCENTRICITY   = .001129
INCLINATION    = 98.3028
RA_OF_ASC_NODE = 155.2858
ARG_OF_PERICENTER = 121.7349
MEAN_ANOMALY   = 238.4941

EPHEMERIS_TYPE = 0
CLASSIFICATION_TYPE = U
NORAD_CAT_ID   = 20443
ELEMENT_SET_NO = 999
REV_AT_EPOCH   = 89665
BSTAR          = .1412E-3
MEAN_MOTION_DOT = .402E-5
MEAN_MOTION_DDOT = 0

CCSDS_OMM_VERS = 2.0
CREATION_DATE  = 
ORIGINATOR     = 

OBJECT_NAME    = DELTA 2 R/B(1)
OBJECT_ID      = 1990-008B
CENTER_NAME    = EARTH
REF_FRAME      = TEME
TIME_SYSTEM    = UTC
MEAN_ELEMENT_THEORY = SGP/SGP4

EPOCH          = 2026-04-05T10:05:22.799328
MEAN_MOTION    = 15.59815515
ECCENTRICITY   = .0076152
INCLINATION    = 35.6041
RA_OF_ASC_NODE = 358.9565
ARG_OF_PERICENTER = 150.4404
MEAN_ANOMALY   = 210.0668

EPHEMERIS_TYPE = 0
CLASSIFICATION_TYPE = U
NORAD_CAT_ID   = 20453
ELEMENT_SET_NO = 999
REV_AT_EPOCH   = 93030
BSTAR          = .83578E-3
MEAN_MOTION_DOT = .80657E-3
MEAN_MOTION_DDOT = 0

